[{"OBJECT_NAME":"STARLINK-3587","OBJECT_ID":"2022-022AS","EPOCH":"2025-12-25T15:05:32.426592","MEAN_MOTION":15.08838754,"ECCENTRICITY":0.0001446,"INCLINATION":53.2198,"RA_OF_ASC_NODE":331.5951,"ARG_OF_PERICENTER":97.0615,"MEAN_ANOMALY":263.0541,"EPHEMERIS_TYPE":0,"CLASSIFICATION_TYPE":"U","NORAD_CAT_ID":51892,"ELEMENT_SET_NO":999,"REV_AT_EPOCH":21206,"BSTAR":0.00012185,"MEAN_MOTION_DOT":1.652e-5,"MEAN_MOTION_DDOT":0},{"OBJECT_NAME":"STARLINK-3579","OBJECT_ID":"2022-022AT","EPOCH":"2025-12-25T03:36:38.647584","MEAN_MOTION":15.08836649,"ECCENTRICITY":0.00016109,"INCLINATION":53.2198,"RA_OF_ASC_NODE":333.7397,"ARG_OF_PERICENTER":98.4162,"MEAN_ANOMALY":261.7013,"EPHEMERIS_TYPE":0,"CLASSIFICATION_TYPE":"U","NORAD_CAT_ID":51893,"ELEMENT_SET_NO":999,"REV_AT_EPOCH":21205,"BSTAR":2.1893377e-5,"MEAN_MOTION_DOT":6.0e-7,"MEAN_MOTION_DDOT":0},{"OBJECT_NAME":"STARLINK-3595","OBJECT_ID":"2022-022AU","EPOCH":"2025-12-25T14:49:38.671680","MEAN_MOTION":15.08835398,"ECCENTRICITY":0.0001374,"INCLINATION":53.2187,"RA_OF_ASC_NODE":331.6422,"ARG_OF_PERICENTER":90.3087,"MEAN_ANOMALY":269.8063,"EPHEMERIS_TYPE":0,"CLASSIFICATION_TYPE":"U","NORAD_CAT_ID":51894,"ELEMENT_SET_NO":999,"REV_AT_EPOCH":21212,"BSTAR":4.982e-6,"MEAN_MOTION_DOT":-2.09e-6,"MEAN_MOTION_DDOT":0},{"OBJECT_NAME":"STARLINK-3594","OBJECT_ID":"2022-022AV","EPOCH":"2025-12-25T05:06:44.244576","MEAN_MOTION":15.08834046,"ECCENTRICITY":0.0001381,"INCLINATION":53.2185,"RA_OF_ASC_NODE":333.4572,"ARG_OF_PERICENTER":95.7421,"MEAN_ANOMALY":264.3729,"EPHEMERIS_TYPE":0,"CLASSIFICATION_TYPE":"U","NORAD_CAT_ID":51895,"ELEMENT_SET_NO":999,"REV_AT_EPOCH":21200,"BSTAR":1.8127e-5,"MEAN_MOTION_DOT":1.0e-8,"MEAN_MOTION_DDOT":0},{"OBJECT_NAME":"STARLINK-3593","OBJECT_ID":"2022-022AW","EPOCH":"2025-12-25T15:10:52.624992","MEAN_MOTION":15.08839532,"ECCENTRICITY":0.0001456,"INCLINATION":53.2208,"RA_OF_ASC_NODE":331.7985,"ARG_OF_PERICENTER":94.251,"MEAN_ANOMALY":265.8649,"EPHEMERIS_TYPE":0,"CLASSIFICATION_TYPE":"U","NORAD_CAT_ID":51896,"ELEMENT_SET_NO":999,"REV_AT_EPOCH":21211,"BSTAR":8.0479e-5,"MEAN_MOTION_DOT":9.93e-6,"MEAN_MOTION_DDOT":0},{"OBJECT_NAME":"STARLINK-3598","OBJECT_ID":"2022-022AX","EPOCH":"2025-12-25T08:12:10.725984","MEAN_MOTION":15.08843533,"ECCENTRICITY":0.0001625,"INCLINATION":53.2185,"RA_OF_ASC_NODE":332.8821,"ARG_OF_PERICENTER":59.4839,"MEAN_ANOMALY":300.6313,"EPHEMERIS_TYPE":0,"CLASSIFICATION_TYPE":"U","NORAD_CAT_ID":51897,"ELEMENT_SET_NO":999,"REV_AT_EPOCH":21202,"BSTAR":-0.00085319,"MEAN_MOTION_DOT":-0.00013842,"MEAN_MOTION_DDOT":0},{"OBJECT_NAME":"STARLINK-3597","OBJECT_ID":"2022-022AY","EPOCH":"2025-12-25T03:20:45.241728","MEAN_MOTION":15.0883446,"ECCENTRICITY":0.00015806,"INCLINATION":53.2185,"RA_OF_ASC_NODE":333.7903,"ARG_OF_PERICENTER":87.7934,"MEAN_ANOMALY":272.324,"EPHEMERIS_TYPE":0,"CLASSIFICATION_TYPE":"U","NORAD_CAT_ID":51898,"ELEMENT_SET_NO":999,"REV_AT_EPOCH":21204,"BSTAR":5.961982e-6,"MEAN_MOTION_DOT":-1.93e-6,"MEAN_MOTION_DDOT":0},{"OBJECT_NAME":"STARLINK-3700","OBJECT_ID":"2022-025A","EPOCH":"2025-12-25T06:48:14.948640","MEAN_MOTION":15.0639484,"ECCENTRICITY":0.000146,"INCLINATION":53.0564,"RA_OF_ASC_NODE":355.6467,"ARG_OF_PERICENTER":88.4284,"MEAN_ANOMALY":271.6872,"EPHEMERIS_TYPE":0,"CLASSIFICATION_TYPE":"U","NORAD_CAT_ID":51956,"ELEMENT_SET_NO":999,"REV_AT_EPOCH":20983,"BSTAR":2.1077e-5,"MEAN_MOTION_DOT":3.2e-7,"MEAN_MOTION_DDOT":0},{"OBJECT_NAME":"STARLINK-3694","OBJECT_ID":"2022-025B","EPOCH":"2025-12-25T10:15:47.047104","MEAN_MOTION":15.06393363,"ECCENTRICITY":0.0001354,"INCLINATION":53.0565,"RA_OF_ASC_NODE":9.2452,"ARG_OF_PERICENTER":87.4265,"MEAN_ANOMALY":272.6879,"EPHEMERIS_TYPE":0,"CLASSIFICATION_TYPE":"U","NORAD_CAT_ID":51957,"ELEMENT_SET_NO":999,"REV_AT_EPOCH":20965,"BSTAR":4.8813e-5,"MEAN_MOTION_DOT":4.46e-6,"MEAN_MOTION_DDOT":0},{"OBJECT_NAME":"STARLINK-3692","OBJECT_ID":"2022-025C","EPOCH":"2025-12-25T05:07:24.278016","MEAN_MOTION":15.06393902,"ECCENTRICITY":0.0001418,"INCLINATION":53.0561,"RA_OF_ASC_NODE":355.9651,"ARG_OF_PERICENTER":91.6605,"MEAN_ANOMALY":268.4547,"EPHEMERIS_TYPE":0,"CLASSIFICATION_TYPE":"U","NORAD_CAT_ID":51958,"ELEMENT_SET_NO":999,"REV_AT_EPOCH":20982,"BSTAR":6.2082e-5,"MEAN_MOTION_DOT":6.43e-6,"MEAN_MOTION_DDOT":0},{"OBJECT_NAME":"STARLINK-3704","OBJECT_ID":"2022-025D","EPOCH":"2025-12-25T00:47:51.784800","MEAN_MOTION":15.06390623,"ECCENTRICITY":0.00014744,"INCLINATION":53.0557,"RA_OF_ASC_NODE":10.9882,"ARG_OF_PERICENTER":89.9301,"MEAN_ANOMALY":270.1857,"EPHEMERIS_TYPE":0,"CLASSIFICATION_TYPE":"U","NORAD_CAT_ID":51959,"ELEMENT_SET_NO":999,"REV_AT_EPOCH":20959,"BSTAR":0.00013163102,"MEAN_MOTION_DOT":1.679e-5,"MEAN_MOTION_DDOT":0},{"OBJECT_NAME":"STARLINK-3691","OBJECT_ID":"2022-025E","EPOCH":"2025-12-25T06:59:23.275968","MEAN_MOTION":15.06398971,"ECCENTRICITY":0.0001166,"INCLINATION":53.0557,"RA_OF_ASC_NODE":9.8329,"ARG_OF_PERICENTER":93.6712,"MEAN_ANOMALY":266.441,"EPHEMERIS_TYPE":0,"CLASSIFICATION_TYPE":"U","NORAD_CAT_ID":51960,"ELEMENT_SET_NO":999,"REV_AT_EPOCH":20963,"BSTAR":0.00014087,"MEAN_MOTION_DOT":1.817e-5,"MEAN_MOTION_DDOT":0},{"OBJECT_NAME":"STARLINK-3697","OBJECT_ID":"2022-025G","EPOCH":"2025-12-25T06:13:03.036288","MEAN_MOTION":15.06396877,"ECCENTRICITY":0.000142,"INCLINATION":53.0554,"RA_OF_ASC_NODE":0.5561,"ARG_OF_PERICENTER":93.8007,"MEAN_ANOMALY":266.3144,"EPHEMERIS_TYPE":0,"CLASSIFICATION_TYPE":"U","NORAD_CAT_ID":51962,"ELEMENT_SET_NO":999,"REV_AT_EPOCH":20976,"BSTAR":-1.6913e-5,"MEAN_MOTION_DOT":-5.33e-6,"MEAN_MOTION_DDOT":0},{"OBJECT_NAME":"STARLINK-3675","OBJECT_ID":"2022-025H","EPOCH":"2025-12-25T06:27:00.504576","MEAN_MOTION":15.06397449,"ECCENTRICITY":0.0001294,"INCLINATION":53.0569,"RA_OF_ASC_NODE":355.657,"ARG_OF_PERICENTER":91.094,"MEAN_ANOMALY":269.0197,"EPHEMERIS_TYPE":0,"CLASSIFICATION_TYPE":"U","NORAD_CAT_ID":51963,"ELEMENT_SET_NO":999,"REV_AT_EPOCH":20983,"BSTAR":5.9873e-5,"MEAN_MOTION_DOT":6.1e-6,"MEAN_MOTION_DDOT":0},{"OBJECT_NAME":"STARLINK-3690","OBJECT_ID":"2022-025J","EPOCH":"2025-12-25T04:07:09.005664","MEAN_MOTION":15.06382059,"ECCENTRICITY":0.00013409,"INCLINATION":53.0538,"RA_OF_ASC_NODE":1.5394,"ARG_OF_PERICENTER":87.3677,"MEAN_ANOMALY":272.7465,"EPHEMERIS_TYPE":0,"CLASSIFICATION_TYPE":"U","NORAD_CAT_ID":51964,"ELEMENT_SET_NO":999,"REV_AT_EPOCH":20974,"BSTAR":-5.1503913e-5,"MEAN_MOTION_DOT":-1.048e-5,"MEAN_MOTION_DDOT":0},{"OBJECT_NAME":"STARLINK-3696","OBJECT_ID":"2022-025K","EPOCH":"2025-12-25T05:18:32.992416","MEAN_MOTION":15.06388604,"ECCENTRICITY":0.0001535,"INCLINATION":53.0562,"RA_OF_ASC_NODE":10.1465,"ARG_OF_PERICENTER":89.6612,"MEAN_ANOMALY":270.4553,"EPHEMERIS_TYPE":0,"CLASSIFICATION_TYPE":"U","NORAD_CAT_ID":51965,"ELEMENT_SET_NO":999,"REV_AT_EPOCH":20962,"BSTAR":8.3252e-5,"MEAN_MOTION_DOT":9.58e-6,"MEAN_MOTION_DDOT":0},{"OBJECT_NAME":"STARLINK-3699","OBJECT_ID":"2022-025L","EPOCH":"2025-12-25T06:14:56.476032","MEAN_MOTION":15.06391009,"ECCENTRICITY":0.0001379,"INCLINATION":53.0561,"RA_OF_ASC_NODE":4.9512,"ARG_OF_PERICENTER":101.6089,"MEAN_ANOMALY":258.5054,"EPHEMERIS_TYPE":0,"CLASSIFICATION_TYPE":"U","NORAD_CAT_ID":51966,"ELEMENT_SET_NO":999,"REV_AT_EPOCH":20970,"BSTAR":-6.2804e-5,"MEAN_MOTION_DOT":-1.217e-5,"MEAN_MOTION_DDOT":0}]
