STARLINK-3587           
1 51892U 22022AS  25359.62884753  .00001652  00000+0  12185-3 0  9993
2 51892  53.2198 331.5951 0001446  97.0615 263.0541 15.08838754212066
STARLINK-3579           
1 51893U 22022AT  25359.15044731  .00000060  00000+0  21893-4 0  9995
2 51893  53.2198 333.7397 0001610  98.4162 261.7013 15.08836649212059
STARLINK-3595           
1 51894U 22022AU  25359.61780870 -.00000209  00000+0  49820-5 0  9995
2 51894  53.2187 331.6422 0001374  90.3087 269.8063 15.08835398212120
STARLINK-3594           
1 51895U 22022AV  25359.21301209  .00000001  00000+0  18127-4 0  9991
2 51895  53.2185 333.4572 0001381  95.7421 264.3729 15.08834046212009
STARLINK-3593           
1 51896U 22022AW  25359.63255353  .00000993  00000+0  80479-4 0  9995
2 51896  53.2208 331.7985 0001456  94.2510 265.8649 15.08839532212115
STARLINK-3598           
1 51897U 22022AX  25359.34179081 -.00013842  00000+0 -85319-3 0  9993
2 51897  53.2185 332.8821 0001625  59.4839 300.6313 15.08843533212028
STARLINK-3597           
1 51898U 22022AY  25359.13941252 -.00000193  00000+0  59620-5 0  9990
2 51898  53.2185 333.7903 0001580  87.7934 272.3240 15.08834460212045
STARLINK-3700           
1 51956U 22025A   25359.28350635  .00000032  00000+0  21077-4 0  9998
2 51956  53.0564 355.6467 0001460  88.4284 271.6872 15.06394840209837
STARLINK-3694           
1 51957U 22025B   25359.42762786  .00000446  00000+0  48813-4 0  9995
2 51957  53.0565   9.2452 0001354  87.4265 272.6879 15.06393363209652
STARLINK-3692           
1 51958U 22025C   25359.21347544  .00000643  00000+0  62082-4 0  9997
2 51958  53.0561 355.9651 0001418  91.6605 268.4547 15.06393902209820
STARLINK-3704           
1 51959U 22025D   25359.03323825  .00001679  00000+0  13163-3 0  9999
2 51959  53.0557  10.9882 0001474  89.9301 270.1857 15.06390623209590
STARLINK-3691           
1 51960U 22025E   25359.29124162  .00001817  00000+0  14087-3 0  9992
2 51960  53.0557   9.8329 0001166  93.6712 266.4410 15.06398971209633
STARLINK-3697           
1 51962U 22025G   25359.25906292 -.00000533  00000+0 -16913-4 0  9999
2 51962  53.0554   0.5561 0001420  93.8007 266.3144 15.06396877209760
STARLINK-3675           
1 51963U 22025H   25359.26875584  .00000610  00000+0  59873-4 0  9996
2 51963  53.0569 355.6570 0001294  91.0940 269.0197 15.06397449209838
STARLINK-3690           
1 51964U 22025J   25359.17163201 -.00001048  00000+0 -51504-4 0  9994
2 51964  53.0538   1.5394 0001340  87.3677 272.7465 15.06382059209743
STARLINK-3696           
1 51965U 22025K   25359.22121519  .00000958  00000+0  83252-4 0  9999
2 51965  53.0562  10.1465 0001535  89.6612 270.4553 15.06388604209628
STARLINK-3699           
1 51966U 22025L   25359.26037588 -.00001217  00000+0 -62804-4 0  9997
2 51966  53.0561   4.9512 0001379 101.6089 258.5054 15.06391009209706
